{
    "links": {
        "self": "http://www.neowsapp.com/rest/v1/neo/3687147?api_key=iIulBulltgU6a56xZRHN4H3l9WmuAYTsLGpBGhQ2"
    },
    "id": "3687147",
    "neo_reference_id": "3687147",
    "name": "(2014 RK17)",
    "designation": "2014 RK17",
    "nasa_jpl_url": "http://ssd.jpl.nasa.gov/sbdb.cgi?sstr=3687147",
    "absolute_magnitude_h": 22.3,
    "estimated_diameter": {
        "kilometers": {
            "estimated_diameter_min": 0.0921626549,
            "estimated_diameter_max": 0.2060819612
        },
        "meters": {
            "estimated_diameter_min": 92.1626548503,
            "estimated_diameter_max": 206.0819612321
        },
        "miles": {
            "estimated_diameter_min": 0.057267201,
            "estimated_diameter_max": 0.1280533543
        },
        "feet": {
            "estimated_diameter_min": 302.370924539,
            "estimated_diameter_max": 676.1219416887
        }
    },
    "is_potentially_hazardous_asteroid": false,
    "close_approach_data": [
        {
            "close_approach_date": "1989-05-14",
            "close_approach_date_full": "1989-May-14 16:29",
            "epoch_date_close_approach": 611166540000,
            "relative_velocity": {
                "kilometers_per_second": "16.7083219446",
                "kilometers_per_hour": "60149.9590005611",
                "miles_per_hour": "37374.8453578764"
            },
            "miss_distance": {
                "astronomical": "0.4760802718",
                "lunar": "185.1952257302",
                "kilometers": "71220594.610301066",
                "miles": "44254425.3858680708"
            },
            "orbiting_body": "Earth"
        },
        {
            "close_approach_date": "1992-09-19",
            "close_approach_date_full": "1992-Sep-19 01:34",
            "epoch_date_close_approach": 716866440000,
            "relative_velocity": {
                "kilometers_per_second": "23.5198274128",
                "kilometers_per_hour": "84671.3786860339",
                "miles_per_hour": "52611.5019396637"
            },
            "miss_distance": {
                "astronomical": "0.3323813122",
                "lunar": "129.2963304458",
                "kilometers": "49723536.332925014",
                "miles": "30896772.7748886332"
            },
            "orbiting_body": "Earth"
        },
        {
            "close_approach_date": "2014-08-27",
            "close_approach_date_full": "2014-Aug-27 00:32",
            "epoch_date_close_approach": 1409099520000,
            "relative_velocity": {
                "kilometers_per_second": "14.4252294572",
                "kilometers_per_hour": "51930.8260458685",
                "miles_per_hour": "32267.7957727787"
            },
            "miss_distance": {
                "astronomical": "0.2073925941",
                "lunar": "80.6757191049",
                "kilometers": "31025490.331134567",
                "miles": "19278345.7429963446"
            },
            "orbiting_body": "Earth"
        }
    ],
    "orbital_data": {
        "orbit_id": "6",
        "orbit_determination_date": "2017-04-06 08:38:44",
        "first_observation_date": "2014-09-02",
        "last_observation_date": "2014-09-27",
        "data_arc_in_days": 25,
        "observations_used": 16,
        "orbit_uncertainty": "6",
        "minimum_orbit_intersection": ".106965",
        "jupiter_tisserand_invariant": "3.411",
        "epoch_osculation": "2459000.5",
        "eccentricity": ".5441948504683713",
        "semi_major_axis": "2.140144882368398",
        "inclination": "24.49802571844893",
        "ascending_node_longitude": "350.1097505291627",
        "orbital_period": "1143.571147070157",
        "perihelion_distance": ".9754890581272775",
        "perihelion_argument": "305.4976788448554",
        "aphelion_distance": "3.304800706609519",
        "perihelion_time": "2459143.798434280123",
        "mean_anomaly": "314.8891763551295",
        "mean_motion": ".3148033254619306",
        "equinox": "J2000",
        "orbit_class": {
            "orbit_class_type": "APO",
            "orbit_class_description": "Near-Earth asteroid orbits which cross the Earth’s orbit similar to that of 1862 Apollo",
            "orbit_class_range": "a (semi-major axis) > 1.0 AU; q (perihelion) < 1.017 AU"
        }
    },
    "is_sentry_object": false
}